#dP2018  3  3  0  0  0.00000000      96 __u+U ITR00 FIT  IAC
## 1990 518400.00000000   900.00000000 58180 0.0000000000000
+   88   C01C02C03C04C05C06C07C08C09C10C11C12C13C14E01E02E03
+        E04E05E07E08E09E11E12E14E18E19E24E26E30G01G02G03G04
+        G05G06G07G08G09G10G11G12G13G14G15G16G17G19G20G21G22
+        G23G24G25G26G27G28G29G30G31G32J01J02J03R01R02R03R04
+        R05R06R07R08R09R10R11R13R14R15R16R17R18R19R20R21R22
+        R23R24R26  0  0  0  0  0  0  0  0  0  0  0  0  0  0
++         0  0  0  0  0  0  0  0  0  0  0  0  0  0  0  0  0
++         0  0  0  0  0  0  0  0  0  0  0  0  0  0  0  0  0
++         0  0  0  0  0  0  0  0  0  0  0  0  0  0  0  0  0
++         0  0  0  0  0  0  0  0  0  0  0  0  0  0  0  0  0
++         0  0  0  0  0  0  0  0  0  0  0  0  0  0  0  0  0
++         0  0  0  0  0  0  0  0  0  0  0  0  0  0  0  0  0
%c M  cc GPS ccc cccc cccc cccc cccc ccccc ccccc ccccc ccccc
%c cc cc ccc ccc cccc cccc cccc cccc ccccc ccccc ccccc ccccc
%f  0.0000000  0.000000000  0.00000000000  0.000000000000000
%f  0.0000000  0.000000000  0.00000000000  0.000000000000000
%i    0    0    0    0      0      0      0      0         0
%i    0    0    0    0      0      0      0      0         0
/*                                                          
/*   RSA / INFORMATION & ANALYSIS CENTER (IAC) OF MCC       
/*   ULTRA-RAPID DETERMINATION                              
/* PCV:IGS14_1984 OL/AL:FES2004  NONE     YN ORB:CoN CLK:CoN
*  2018 03 03  2 45  0.00000000
PC01 -32307.492891  27095.761650   -268.088457    434.778203
PC02   4393.868347  41923.197016   -493.791939   -264.577644
PC03      0.000000      0.000000      0.000000 999999.999999
PC04 -39628.432395  14362.646346   -361.933887   -145.504759
PC05  21904.100769  36011.486045   -513.153253   -158.832757
PC06 -20474.463807  24384.404645  27725.565853   -679.725125
PC07 -16693.862688  38358.474437   6959.688127   -330.987414
PC08  -6191.556136  24469.781149 -33635.407680    206.830713
PC09  -5643.031109  25061.265050  33536.562895   -352.176733
PC10  -7312.809498  41331.814783  -5520.866360    -55.116709
PC11   7185.283799  17756.798441 -20205.073177   -412.574139
PC12 -13802.532370  10097.810497 -22009.281434    387.807512
PC13   7593.245869  33165.786014 -24746.234270   -229.872825
PC14  -4534.403861  20130.742379  18813.441377    255.734575
PE01  -1915.940332  28709.908243  -6944.040065   -289.147782
PE02   1910.021117 -28714.607959   6953.156685      6.326695
PE03   1518.606801 -17919.262433 -23509.985317     -5.240829
PE04  19185.667876   9393.955106  20494.351860     13.413252
PE05  21409.602217 -15973.464587 -12757.970487    311.596028
PE07 -28719.631635   4687.291327  -5429.298270     74.809048
PE08 -19219.604650  -9100.340734 -20591.990183   6631.534912
PE09  28651.664152  -4949.764569   5523.282056   6859.749968
PE11  23039.354888   4596.030746  18024.934347   1845.913566
PE12  22178.209270  19607.663782    741.359567   3626.483793
PE14 -10972.005571 -14733.781085  14758.959178   6622.173365
PE18  10949.329994  21168.646064 -22039.598065   6387.323938
PE19  -3651.669980  18113.260057  23123.888293     19.941293
PE24  17050.382365  -4826.451340 -23726.680206   6833.767655
PE26 -10703.674111  12753.961526 -24462.590779   6209.416883
PE30 -10706.457387 -16913.658704  21798.930254   6033.786138
PG01  16115.780536   1698.487350  20962.663187    -31.870323
PG02 -14296.834493 -21787.139199  -5261.745991    185.205251
PG03  19939.890480  -7478.105129  15819.708222     20.435328
PG04  -4325.751365  21278.818182 -15333.561081     41.530264
PG05 -10616.618800 -11567.517607 -21506.856548    -13.014768
PG06  -6054.774257 -25238.233312   5621.941040    413.585410
PG07   9118.995294 -14886.900756 -19677.928999    228.826898
PG08  26102.861679   4860.985207  -2100.122649    -93.055490
PG09  18269.299743  -9620.538817 -16749.659985    504.457835
PG10  -8464.489145  22793.033690  10543.786326    166.110488
PG11      0.000000      0.000000      0.000000 999999.999999
PG12 -19507.952672   5007.155808  17027.245916    347.442610
PG13 -21409.804690 -12527.903029  -9599.571051    -95.590747
PG14   8601.917053  16011.782104  19707.864906    -94.663070
PG15 -26538.034947  -3078.769837  -1940.150547   -356.697912
PG16   9289.988848  11491.240610 -22189.203372     31.125577
PG17   1124.512622 -14956.632114  22312.450615   -118.898865
PG19  -6698.778828 -15540.167892  20136.110432   -453.471501
PG20 -19426.407596   7783.710462 -16471.627143    502.212129
PG21  -5886.632589  18101.511911 -17716.456072   -424.154064
PG22  18234.173887   -370.031460  19555.028887   -309.910795
PG23  25922.412554  -1270.738252  -6339.076018   -218.774558
PG24 -17539.030579  -4738.739968  19351.288729    -46.764735
PG25 -19167.589916  16825.712499   6780.597348   -547.338614
PG26    956.578638  19576.557637 -17867.202951   -231.452867
PG27  19167.829564  12208.146106 -14018.179691    368.673473
PG28  12438.175155 -21971.778789   8934.913257    693.586811
PG29 -21443.362758   5573.557217 -14647.078762    488.262042
PG30   3511.419769 -21980.759247 -14379.362495     98.593785
PG31   6065.859376  25270.579182   4286.819519    138.071141
PG32   -943.089046  15301.414542  21716.352676   -530.368208
PJ01 -26915.444900  32451.947237   2505.031291    -79.503713
PJ02 -25241.528677  25166.085487  27076.564420     -0.050209
PJ03 -32821.982333  17423.826516 -15272.427618    -16.288715
PR01   9849.273059 -14953.595182 -18160.339368     22.824655
PR02  -9705.444609  -7043.607639 -22472.132074    297.919554
PR03 -21874.448053   4376.299897 -12296.883197    125.629877
PR04 -20994.955462  13417.481084   5441.509444    251.944264
PR05  -8232.586912  14687.710770  19155.309613   -257.627712
PR06  10762.692483   6507.873981  22184.010498    128.039868
PR07  22055.678085  -4592.838644  12027.373143    -31.483119
PR08  21336.883468 -13146.717144  -4707.255517     38.313710
PR09   6094.894385  19275.892279 -15584.189033     44.902985
PR10  10536.793075   1829.687130 -23183.539781     19.523116
PR11   9197.527410 -16927.191704 -16688.773912    -23.089011
PR13  -6514.041387 -18659.811978  16104.313895     -8.023065
PR14 -10765.869515  -2039.410560  23042.000303     25.124359
PR15  -9812.271181  13618.312659  19167.775238     -7.051634
PR16  -1984.993532  25330.061263   1367.819359     86.892774
PR17 -21737.258330  -9162.714371  -9727.389380    113.531473
PR18 -13347.074846   2911.604454 -21505.296581    186.794621
PR19   2485.834932  13583.144118 -21441.120455    -46.204284
PR20  17707.315360  16675.972133  -7761.501060   -329.210344
PR21  21668.832869   8963.191114  10024.394227     26.940193
PR22  12004.571235  -4079.988459  22168.581197    -23.261136
PR23  -5971.335542 -14896.408203  19823.456553    139.423333
PR24 -18347.261995 -16228.513868   7067.111324   -163.156069
PR26  17813.562853  16366.533207  -8046.337694      2.725251
EOF
